[{"OBJECT_NAME":"STARLINK-35029","OBJECT_ID":"2025-194M","EPOCH":"2026-03-09T14:11:50.511840","MEAN_MOTION":15.05651803,"ECCENTRICITY":0.0002711,"INCLINATION":97.6012,"RA_OF_ASC_NODE":284.3048,"ARG_OF_PERICENTER":90.4361,"MEAN_ANOMALY":269.7176,"EPHEMERIS_TYPE":0,"CLASSIFICATION_TYPE":"U","NORAD_CAT_ID":65445,"ELEMENT_SET_NO":999,"REV_AT_EPOCH":2963,"BSTAR":0.00035762,"MEAN_MOTION_DOT":5.104e-5,"MEAN_MOTION_DDOT":0},{"OBJECT_NAME":"PEGASUS R\/B","OBJECT_ID":"2019-068B","EPOCH":"2026-03-09T22:22:48.049248","MEAN_MOTION":15.04682366,"ECCENTRICITY":0.00118062,"INCLINATION":26.9924,"RA_OF_ASC_NODE":328.8145,"ARG_OF_PERICENTER":174.3111,"MEAN_ANOMALY":185.7586,"EPHEMERIS_TYPE":0,"CLASSIFICATION_TYPE":"U","NORAD_CAT_ID":44629,"ELEMENT_SET_NO":999,"REV_AT_EPOCH":35103,"BSTAR":0.00027730034,"MEAN_MOTION_DOT":4.233e-5,"MEAN_MOTION_DDOT":0}]
